{
  "norad_id": 65870,
  "name": "STARLINK-35433",
  "history": [
    {
      "epoch": "2026-03-28T17:37:20.726688Z",
      "apogee_km": 476.1470054599913,
      "perigee_km": 474.2415052377537,
      "latitude_deg": 2.455014788837464e-06,
      "longitude_deg": 115.07157752709269,
      "height_km": 475.88018608389456,
      "semi_major_axis_km": 6853.331255348872,
      "eccentricity": 0.00013902,
      "inclination_deg": 53.1591,
      "raan_deg": 205.5584,
      "arg_perigee_deg": 77.1472,
      "mean_anomaly_deg": 282.9684,
      "mean_motion_rev_day": 15.30206971
    }
  ]
}