{"fetched_at":"2026-03-29T16:36:15Z","count":15609,"tles":[{"name":"STARLINK-35433","line1":"1 65870U 25223S   26087.73426767  .00043268  00000+0  14642-2 0  9996","line2":"2 65870  53.1591 205.5584 0001390  77.1472 282.9684 15.30206971 27138","category":"Starlink"}]}